STARLINK-32855          
1 62813U 25018H   25162.18369447  .00023024  00000+0  78699-3 0  9996
2 62813  53.1601 130.4318 0001074  86.9829 273.1295 15.30203705 22517
STARLINK-32843          
1 62814U 25018J   25161.63278907  .00011152  00000+0  38817-3 0  9993
2 62814  53.1596 133.3908 0001382  82.3523 277.7635 15.30191686 21512
STARLINK-32845          
1 62815U 25018K   25162.19001681  .00017504  00000+0  60144-3 0  9994
2 62815  53.1588 130.4664 0001333  93.7404 266.3750 15.30214304 22247
STARLINK-32854          
1 62816U 25018L   25161.62540220  .00011529  00000+0  40082-3 0  9999
2 62816  53.1582 133.3470 0001195  69.7406 290.3723 15.30196009 21506
STARLINK-32824          
1 62817U 25018M   25161.93090620  .00258555  00000+0  84784-2 0  9996
2 62817  53.1577 131.6894 0002452  68.4375 291.6886 15.30062321 22515
STARLINK-32853          
1 62818U 25018N   25161.92453811  .00019233  00000+0  65972-3 0  9998
2 62818  53.1578 131.6561 0001469  90.1590 269.9579 15.30204925 22476
STARLINK-32856          
1 62819U 25018P   25161.94777002  .00013530  00000+0  46792-3 0  9995
2 62819  53.1578 131.8053 0001065  84.8892 275.2231 15.30212432 22424
STARLINK-32844          
1 62820U 25018Q   25161.62434708  .00013632  00000+0  47162-3 0  9990
2 62820  53.1571 133.3386 0001116  93.5824 266.5305 15.30194946 21517
STARLINK-32782          
1 62821U 25018R   25162.32908621  .00021859  00000+0  74699-3 0  9994
2 62821  53.1576 129.9152 0000453 343.6548  16.4438 15.30242222 22487
STARLINK-32842          
1 62822U 25018S   25162.33647580  .00013154  00000+0  45540-3 0  9992
2 62822  53.1578 129.9627 0001010  88.4738 271.6379 15.30204745 22546
STARLINK-32823          
1 62823U 25018T   25161.99301595  .00013785  00000+0  47654-3 0  9995
2 62823  53.1590 131.3744 0001366  97.1907 262.9249 15.30210325 22480
STARLINK-32852          
1 62824U 25018U   25162.28382603  .00023531  00000+0  80321-3 0  9996
2 62824  53.1588 130.3452 0001419  24.6037 335.5031 15.30235052 22379
STARLINK-32825          
1 62825U 25018V   25162.32055716  .00042506  00000+0  10652-2 0  9996
2 62825  53.1571 129.1508 0000483  82.8264 277.2796 15.39662870 22571
STARLINK-32704          
1 62826U 25018W   25162.58335648 -.00023975  00000+0 -81940-3 0  9990
2 62826  53.1607 128.6774 0000354 195.6483 156.4110 15.29427808 22605
STARLINK-32838          
1 62827U 25018X   25162.52596674  .00031396  00000+0  78995-3 0  9993
2 62827  53.1621  95.9672 0001484  79.5526 280.5647 15.39685937 22815
STARLINK-32727          
1 62828U 25018Y   25162.27852772  .00027189  00000+0  68672-3 0  9996
2 62828  53.1566 129.5996 0001364 103.6419 256.4738 15.39644456 22560
STARLINK-11548 [DTC]    
1 62829U 25019A   25162.31447633  .00175936  00000+0  13429-2 0  9992
2 62829  43.0004 141.4590 0001518 269.3714  90.6980 15.70891110 22145
STARLINK-11480 [DTC]    
1 62830U 25019B   25162.01779305  .00241687  00000+0  18181-2 0  9992
2 62830  43.0000 143.5483 0002093 233.6818 126.3857 15.71031333 22093
STARLINK-11559 [DTC]    
1 62831U 25019C   25162.30398047  .00175564  00000+0  13378-2 0  9998
2 62831  42.9997 142.2695 0003183 254.8617 105.1899 15.70929411 22139
STARLINK-11549 [DTC]    
1 62832U 25019D   25162.41521094  .00201811  00000+0  15377-2 0  9997
2 62832  43.0001 141.3770 0000848 258.8329 101.2443 15.70850362 22153
STARLINK-11554 [DTC]    
1 62833U 25019E   25162.35695095  .00180735  00000+0  13787-2 0  9998
2 62833  42.9994 141.8011 0001629 281.4934  78.5750 15.70889855 22143
STARLINK-11520 [DTC]    
1 62834U 25019F   25162.00186928  .00232644  00000+0  17570-2 0  9992
2 62834  43.0003 143.4174 0001668 235.7960 124.2750 15.70965337 22115
STARLINK-11546 [DTC]    
1 62835U 25019G   25161.67346170  .00156918  00000+0  12018-2 0  9993
2 62835  42.9999 146.1444 0001601 260.0284 100.0403 15.70872458 21099
STARLINK-11533 [DTC]    
1 62836U 25019H   25162.02310649  .00167780  00000+0  12795-2 0  9997
2 62836  42.9983 143.5890 0002099 255.5902 104.4733 15.70938208 22087
STARLINK-11557 [DTC]    
1 62837U 25019J   25162.00717830  .00175909  00000+0  13442-2 0  9991
2 62837  43.0010 143.4585 0003535 289.7111  70.3375 15.70860226 22096
STARLINK-11556 [DTC]    
1 62838U 25019K   25162.00277922  .00129668  00000+0  99608-3 0  9995
2 62838  42.9993 143.4226 0002714 279.0868  80.9693 15.70891809 22097
STARLINK-11524 [DTC]    
1 62839U 25019L   25162.29867567  .00162054  00000+0  12395-2 0  9990
2 62839  42.9999 142.2253 0002089 285.8577  74.2060 15.70886413 22121
STARLINK-11551 [DTC]    
1 62840U 25019M   25161.94890395  .00236556  00000+0  17865-2 0  9994
2 62840  42.9990 143.8843 0001131 243.3710 116.7041 15.70953793 22072
STARLINK-11531 [DTC]    
1 62841U 25019N   25162.02841507  .00129246  00000+0  99358-3 0  9991
2 62841  42.9998 143.6290 0001706 262.9504  97.1169 15.70877414 22091
STARLINK-32755          
1 62842U 25019P   25161.83334491  .00005041  00000+0  18777-3 0  9991
2 62842  42.9990 177.2836 0001495 267.6721 140.3464 15.28419667  5737
STARLINK-32797          
1 62843U 25019Q   25162.41401670  .00014474  00000+0  53451-3 0  9999
2 62843  42.9991 180.9283 0001481 282.1421  77.9265 15.27577089 21723
STARLINK-32794          
1 62844U 25019R   25162.11278471  .00014498  00000+0  53513-3 0  9993
2 62844  43.0024 182.9691 0001904 279.4388  80.6248 15.27591259 21300
STARLINK-32807          
1 62845U 25019S   25161.83334491  .00002280  00000+0  90139-4 0  9999
2 62845  42.9990 176.9966 0001141 254.0490 272.1282 15.28398687  5955
STARLINK-32804          
1 62846U 25019T   25161.76788458  .00009871  00000+0  36784-3 0  9996
2 62846  42.9997 184.6840 0001643 267.8188  92.2476 15.27571404 20663
STARLINK-32799          
1 62847U 25019U   25162.40630515  .00010162  00000+0  37822-3 0  9998
2 62847  42.9960 180.8672 0001592 274.6371  85.4298 15.27586845 21738
STARLINK-32781          
1 62848U 25019V   25161.50504262  .00009951  00000+0  37073-3 0  9990
2 62848  43.0012 186.1507 0001413 281.3551  78.7142 15.27573007 21595
STARLINK-32809          
1 62849U 25019W   25162.06909431  .00010846  00000+0  40302-3 0  9994
2 62849  42.9967 182.6396 0001114 263.2419  96.8306 15.27585456 21684
STARLINK-32868          
1 62854U 25022A   25162.43453641  .00047663  00000+0  11924-2 0  9996
2 62854  53.1581 311.4251 0000973  53.5081 306.6014 15.39663726 21144
STARLINK-32867          
1 62855U 25022B   25162.42555647 -.00181359  00000+0 -47471-2 0  9994
2 62855  53.1590 311.3585 0003500  83.9539 276.1864 15.38867970 21261
STARLINK-32860          
1 62856U 25022C   25162.41164867  .00033522  00000+0  84345-3 0  9992
2 62856  53.1598 311.2814 0001083  79.2014 280.9113 15.39652139 21219
STARLINK-32873          
1 62857U 25022D   25161.81325296  .00037957  00000+0  95363-3 0  9999
2 62857  53.1599 314.6616 0001160  88.0637 272.0501 15.39637930 20240
STARLINK-32866          
1 62858U 25022E   25161.69726147  .00014280  00000+0  36625-3 0  9996
2 62858  53.1599 314.6427 0001324  91.7375 268.3781 15.39625556 20231
STARLINK-32869          
1 62859U 25022F   25162.39771940  .00037283  00000+0  93638-3 0  9991
2 62859  53.1588 311.1833 0002754  75.4354 284.6957 15.39654846 21261
STARLINK-32831          
1 62860U 25022G   25162.13318409 -.00141676  00000+0 -35786-2 0  9995
2 62860  53.1593 313.1025 0002068 127.7061 232.4131 15.39781593 21094
STARLINK-32859          
1 62861U 25022H   25162.42559530  .00206662  00000+0  50420-2 0  9997
2 62861  53.1591 311.3674 0000807  85.0452 275.0645 15.39593763 21051
STARLINK-32864          
1 62862U 25022J   25162.41629203  .00039716  00000+0  99649-3 0  9993
2 62862  53.1596 311.3006 0001211  67.1491 292.9642 15.39657255 21210
STARLINK-32808          
1 62863U 25022K   25162.43486447  .00028823  00000+0  72703-3 0  9996
2 62863  53.1595 311.4274 0001100  83.9021 276.2110 15.39653390 21097
STARLINK-32862          
1 62864U 25022L   25161.72512284  .00033393  00000+0  84091-3 0  9998
2 62864  53.1592 314.8209 0001301  94.4274 265.6880 15.39628742 20234
STARLINK-32841          
1 62865U 25022M   25162.40212761  .00037064  00000+0  93099-3 0  9999
2 62865  53.1588 311.9372 0001203  83.8605 276.2537 15.39655501 21141
STARLINK-32695          
1 62866U 25022N   25162.41596228  .00038184  00000+0  95881-3 0  9999
2 62866  53.1600 311.3094 0001080  75.6367 284.4758 15.39651608 21150
STARLINK-32846          
1 62867U 25022P   25162.12412879  .00031904  00000+0  80367-3 0  9993
2 62867  53.1593 312.3171 0001332  65.8820 294.2324 15.39641588 21215
STARLINK-32822          
1 62868U 25022Q   25161.83671037  .00030069  00000+0  75857-3 0  9993
2 62868  53.1596 314.0930 0001289  84.8353 275.2799 15.39627038 20256
STARLINK-32813          
1 62869U 25022R   25162.40245944  .00040769  00000+0  10224-2 0  9996
2 62869  53.1584 311.9378 0002763  84.6778 275.4542 15.39658888 21204
STARLINK-32861          
1 62870U 25022S   25162.42988942  .00029003  00000+0  73151-3 0  9999
2 62870  53.1588 311.3965 0001255  92.4188 267.6961 15.39652329 21216
STARLINK-32814          
1 62871U 25022T   25161.67446930  .00021574  00000+0  54762-3 0  9994
2 62871  53.1594 315.2171 0001178  85.4475 274.6664 15.39629671 20223
STARLINK-32849          
1 62872U 25022U   25162.12389578  .00022284  00000+0  56490-3 0  9999
2 62872  53.1590 313.0445 0001450  89.6405 270.4766 15.39650044 21217
STARLINK-32833          
1 62873U 25022V   25161.41945671  .00025310  00000+0  64046-3 0  9992
2 62873  53.1587 316.4683 0001882  82.4576 277.6643 15.39628108 20953
STARLINK-32793          
1 62874U 25022W   25162.40677063  .00039058  00000+0  98027-3 0  9990
2 62874  53.1590 311.9682 0000481  23.3663 336.7363 15.39655974 21196
STARLINK-32834          
1 62875U 25022X   25162.11925032  .00031212  00000+0  78624-3 0  9996
2 62875  53.1588 313.0128 0001497  68.2312 291.8852 15.39652456 20970
